0 PSLV DEB
1 27657U 01049NU  13283.20073097  .00007894  00000-0  99493-3 0  9687
2 27657 097.7966 255.6883 0036710 310.6981 105.4099 14.81768763611181
0 PSLV DEB
1 27657U 01049NU  13285.15891207  .00005637  00000-0  71220-3 0  9696
2 27657 097.7963 257.5954 0036626 304.0822 111.3834 14.81794534611475
0 PSLV DEB
1 27657U 01049NU  13287.18490862  .00006547  00000-0  82572-3 0  9708
2 27657 097.7959 259.5685 0036491 297.1540 119.3848 14.81813473611772
0 PSLV DEB
1 27657U 01049NU  13289.14356716  .00009508  00000-0  11947-2 0  9713
2 27657 097.7963 261.4757 0036295 290.4599 128.3324 14.81846301612069
0 PSLV DEB
1 27657U 01049NU  13291.16885536  .00007323  00000-0  92141-3 0  9725
2 27657 097.7969 263.4480 0036294 283.5404 132.9572 14.81876395612362
0 PSLV DEB
1 27657U 01049NU  13293.19429578  .00008012  00000-0  10068-2 0  9734
2 27657 097.7978 265.4204 0036167 276.5440 138.6767 14.81899999612666
0 PSLV DEB
1 27657U 01049NU  13296.16520837  .00008059  00000-0  10116-2 0  9740
2 27657 097.7986 268.3143 0036159 266.3736 148.7393 14.81942832613107
